GLOBALSTAR M045         
1 25676U 99019A   25057.56097595 -.00000030  00000+0  56501-3 0  9992
2 25676  51.9957 260.5799 0001009  60.2821 345.5344 12.27058197179817
GLOBALSTAR M019         
1 25677U 99019B   25057.62224238 -.00000208  00000+0 -12323-2 0  9997
2 25677  51.9912  22.9859 0001404  91.8509  79.0015 12.13874286171713
GLOBALSTAR M044         
1 25678U 99019C   25057.09747910 -.00000089  00000+0 -72921-4 0  9995
2 25678  51.9993 321.9119 0006078 181.2951 325.2871 11.90246543158096
GLOBALSTAR M042         
1 25679U 99019D   25057.59067664 -.00000037  00000+0  51745-3 0  9994
2 25679  52.0044   3.1700 0003261  70.0741 101.6256 12.22079080171739
GLOBALSTAR M025         
1 25770U 99031A   25057.46951461 -.00000057  00000+0  31852-3 0  9992
2 25770  51.9826  55.7541 0001329 321.9048 201.3982 11.22559713469272
GLOBALSTAR M049         
1 25771U 99031B   25057.52462265 -.00000040  00000+0  88652-3 0  9991
2 25771  51.9865  84.8296 0003424 184.0138 176.0631 11.12115041105112
GLOBALSTAR M047         
1 25772U 99031C   25057.49987404 -.00000045  00000+0  68414-3 0  9994
2 25772  51.9819  92.4314 0016425  74.3775 285.8842 11.31926068458575
GLOBALSTAR M052         
1 25773U 99031D   25057.52072318 -.00000116  00000+0 -16720-2 0  9990
2 25773  51.9844 195.0716 0002043  13.2009  62.7748 11.15058312466164
